{"type": "FeatureCollection", "features": [{"type": "Feature", "properties": {"norad_id": 66376, "name": "SHIYAN-32 01", "group": "last-30-days", "lat": -51.04019751844292, "lon": 127.08911984975575, "alt_km": 445.86371944343045, "timestamp": "2025-12-08T23:34:02.737836+00:00", "meta": {"OBJECT_NAME": "SHIYAN-32 01", "OBJECT_ID": "2025-255A", "EPOCH": "2025-12-08T19:14:05.273088", "MEAN_MOTION": 15.4259212, "ECCENTRICITY": 0.0013619, "INCLINATION": 52.9951, "RA_OF_ASC_NODE": 196.811, "ARG_OF_PERICENTER": 29.3953, "MEAN_ANOMALY": 330.7814, "EPHEMERIS_TYPE": 0, "CLASSIFICATION_TYPE": "U", "NORAD_CAT_ID": 66376, "ELEMENT_SET_NO": 999, "REV_AT_EPOCH": 474, "BSTAR": 0.00059404, "MEAN_MOTION_DOT": 0.00025982, "MEAN_MOTION_DDOT": 0}, "tle": {"line1": "1 66376U 25255A   25342.80144992  .00025982  00000+0  59404-3 0  9990", "line2": "2 66376  52.9951 196.8110 0013619  29.3953 330.7814 15.42592120  4740"}}, "geometry": {"type": "Point", "coordinates": [127.08911984975575, -51.04019751844292]}}, {"type": "Feature", "properties": {"norad_id": 66377, "name": "CZ-11 DEB", "group": "last-30-days", "lat": 13.920656883535065, "lon": -153.46126925220133, "alt_km": 423.4937951801958, "timestamp": "2025-12-08T23:34:02.737893+00:00", "meta": {"OBJECT_NAME": "CZ-11 DEB", "OBJECT_ID": "2025-255B", "EPOCH": "2025-12-08T15:43:30.202752", "MEAN_MOTION": 15.44112254, "ECCENTRICITY": 0.00138879, "INCLINATION": 52.9948, "RA_OF_ASC_NODE": 197.321, "ARG_OF_PERICENTER": 26.378, "MEAN_ANOMALY": 333.7929, "EPHEMERIS_TYPE": 0, "CLASSIFICATION_TYPE": "U", "NORAD_CAT_ID": 66377, "ELEMENT_SET_NO": 999, "REV_AT_EPOCH": 458, "BSTAR": 0.0008659602, "MEAN_MOTION_DOT": 0.00040169, "MEAN_MOTION_DDOT": 0}, "tle": {"line1": "1 66377U 25255B   25342.65521068  .00040169  00000+0  86596-3 0  9993", "line2": "2 66377  52.9948 197.3210 0013887  26.3780 333.7929 15.44112254  4586"}}, "geometry": {"type": "Point", "coordinates": [-153.46126925220133, 13.920656883535065]}}, {"type": "Feature", "properties": {"norad_id": 66378, "name": "SHIYAN-32 02", "group": "last-30-days", "lat": 42.95756590565365, "lon": -119.70087303077709, "alt_km": 419.5874631133447, "timestamp": "2025-12-08T23:34:02.737911+00:00", "meta": {"OBJECT_NAME": "SHIYAN-32 02", "OBJECT_ID": "2025-255C", "EPOCH": "2025-12-08T18:39:26.254080", "MEAN_MOTION": 15.44771666, "ECCENTRICITY": 0.0012189, "INCLINATION": 52.9919, "RA_OF_ASC_NODE": 196.6578, "ARG_OF_PERICENTER": 21.8642, "MEAN_ANOMALY": 338.2881, "EPHEMERIS_TYPE": 0, "CLASSIFICATION_TYPE": "U", "NORAD_CAT_ID": 66378, "ELEMENT_SET_NO": 999, "REV_AT_EPOCH": 460, "BSTAR": 0.00088427, "MEAN_MOTION_DOT": 0.00041942, "MEAN_MOTION_DDOT": 0}, "tle": {"line1": "1 66378U 25255C   25342.77738720  .00041942  00000+0  88427-3 0  9997", "line2": "2 66378  52.9919 196.6578 0012189  21.8642 338.2881 15.44771666  4603"}}, "geometry": {"type": "Point", "coordinates": [-119.70087303077709, 42.95756590565365]}}, {"type": "Feature", "properties": {"norad_id": 66379, "name": "SHIYAN-32 03", "group": "last-30-days", "lat": -29.958930304551277, "lon": 170.11017591893093, "alt_km": 437.62631087711543, "timestamp": "2025-12-08T23:34:02.737924+00:00", "meta": {"OBJECT_NAME": "SHIYAN-32 03", "OBJECT_ID": "2025-255D", "EPOCH": "2025-12-08T19:04:13.935936", "MEAN_MOTION": 15.42904041, "ECCENTRICITY": 0.0015675, "INCLINATION": 52.9957, "RA_OF_ASC_NODE": 196.7687, "ARG_OF_PERICENTER": 30.517, "MEAN_ANOMALY": 329.6743, "EPHEMERIS_TYPE": 0, "CLASSIFICATION_TYPE": "U", "NORAD_CAT_ID": 66379, "ELEMENT_SET_NO": 999, "REV_AT_EPOCH": 462, "BSTAR": 0.00044924, "MEAN_MOTION_DOT": 0.00019759, "MEAN_MOTION_DDOT": 0}, "tle": {"line1": "1 66379U 25255D   25342.79460574  .00019759  00000+0  44924-3 0  9994", "line2": "2 66379  52.9957 196.7687 0015675  30.5170 329.6743 15.42904041  4620"}}, "geometry": {"type": "Point", "coordinates": [170.11017591893093, -29.958930304551277]}}, {"type": "Feature", "properties": {"norad_id": 66380, "name": "STARLINK-35139", "group": "last-30-days", "lat": -17.590889178127128, "lon": 116.1121280325758, "alt_km": 450.83003913807624, "timestamp": "2025-12-08T23:34:02.737937+00:00", "meta": {"OBJECT_NAME": "STARLINK-35139", "OBJECT_ID": "2025-257A", "EPOCH": "2025-12-08T14:00:01.999872", "MEAN_MOTION": 15.39677109, "ECCENTRICITY": 8.108e-05, "INCLINATION": 53.1597, "RA_OF_ASC_NODE": 284.2403, "ARG_OF_PERICENTER": 68.58, "MEAN_ANOMALY": 82.9069, "EPHEMERIS_TYPE": 0, "CLASSIFICATION_TYPE": "U", "NORAD_CAT_ID": 66380, "ELEMENT_SET_NO": 999, "REV_AT_EPOCH": 576, "BSTAR": -0.0055644975, "MEAN_MOTION_DOT": -0.00217155, "MEAN_MOTION_DDOT": 0}, "tle": {"line1": "1 66380U 25257A   25342.58335648 -.00217155  00000+0 -55645-2 0  9991", "line2": "2 66380  53.1597 284.2403 0000810  68.5800  82.9069 15.39677109  5764"}}, "geometry": {"type": "Point", "coordinates": [116.1121280325758, -17.590889178127128]}}, {"type": "Feature", "properties": {"norad_id": 66381, "name": "STARLINK-35158", "group": "last-30-days", "lat": -11.912876142982597, "lon": 111.47589372725967, "alt_km": 453.273752748426, "timestamp": "2025-12-08T23:34:02.737949+00:00", "meta": {"OBJECT_NAME": "STARLINK-35158", "OBJECT_ID": "2025-257B", "EPOCH": "2025-12-08T08:40:19.845120", "MEAN_MOTION": 15.37258046, "ECCENTRICITY": 0.00139812, "INCLINATION": 53.1599, "RA_OF_ASC_NODE": 285.2862, "ARG_OF_PERICENTER": 163.4456, "MEAN_ANOMALY": 196.7007, "EPHEMERIS_TYPE": 0, "CLASSIFICATION_TYPE": "U", "NORAD_CAT_ID": 66381, "ELEMENT_SET_NO": 999, "REV_AT_EPOCH": 569, "BSTAR": -0.039296834, "MEAN_MOTION_DOT": -0.01336514, "MEAN_MOTION_DDOT": 0}, "tle": {"line1": "1 66381U 25257B   25342.36134080 -.01336514  00000+0 -39297-1 0  9991", "line2": "2 66381  53.1599 285.2862 0013981 163.4456 196.7007 15.37258046  5693"}}, "geometry": {"type": "Point", "coordinates": [111.47589372725967, -11.912876142982597]}}, {"type": "Feature", "properties": {"norad_id": 66382, "name": "STARLINK-35639", "group": "last-30-days", "lat": -36.465510943262124, "lon": 135.9558852504963, "alt_km": 452.3862676039571, "timestamp": "2025-12-08T23:34:02.737964+00:00", "meta": {"OBJECT_NAME": "STARLINK-35639", "OBJECT_ID": "2025-257C", "EPOCH": "2025-12-08T13:14:03.644448", "MEAN_MOTION": 15.39624157, "ECCENTRICITY": 0.00022233, "INCLINATION": 53.1597, "RA_OF_ASC_NODE": 284.3387, "ARG_OF_PERICENTER": 86.4104, "MEAN_ANOMALY": 273.7155, "EPHEMERIS_TYPE": 0, "CLASSIFICATION_TYPE": "U", "NORAD_CAT_ID": 66382, "ELEMENT_SET_NO": 999, "REV_AT_EPOCH": 572, "BSTAR": 0.0020006019, "MEAN_MOTION_DOT": 0.00080485, "MEAN_MOTION_DDOT": 0}, "tle": {"line1": "1 66382U 25257C   25342.55143107  .00080485  00000+0  20006-2 0  9992", "line2": "2 66382  53.1597 284.3387 0002223  86.4104 273.7155 15.39624157  5721"}}, "geometry": {"type": "Point", "coordinates": [135.9558852504963, -36.465510943262124]}}, {"type": "Feature", "properties": {"norad_id": 66383, "name": "STARLINK-35690", "group": "last-30-days", "lat": -50.17492292397431, "lon": 166.28904643980073, "alt_km": 452.4651135702761, "timestamp": "2025-12-08T23:34:02.737978+00:00", "meta": {"OBJECT_NAME": "STARLINK-35690", "OBJECT_ID": "2025-257D", "EPOCH": "2025-12-08T13:07:21.931968", "MEAN_MOTION": 15.39636026, "ECCENTRICITY": 0.00011293, "INCLINATION": 53.1603, "RA_OF_ASC_NODE": 284.3099, "ARG_OF_PERICENTER": 82.4956, "MEAN_ANOMALY": 277.6177, "EPHEMERIS_TYPE": 0, "CLASSIFICATION_TYPE": "U", "NORAD_CAT_ID": 66383, "ELEMENT_SET_NO": 999, "REV_AT_EPOCH": 572, "BSTAR": 0.0021346432, "MEAN_MOTION_DOT": 0.00085998, "MEAN_MOTION_DDOT": 0}, "tle": {"line1": "1 66383U 25257D   25342.54678162  .00085998  00000+0  21346-2 0  9998", "line2": "2 66383  53.1603 284.3099 0001129  82.4956 277.6177 15.39636026  5720"}}, "geometry": {"type": "Point", "coordinates": [166.28904643980073, -50.17492292397431]}}, {"type": "Feature", "properties": {"norad_id": 66384, "name": "STARLINK-35662", "group": "last-30-days", "lat": -50.77019268293008, "lon": 168.92722593016492, "alt_km": 453.43725715887376, "timestamp": "2025-12-08T23:34:02.737990+00:00", "meta": {"OBJECT_NAME": "STARLINK-35662", "OBJECT_ID": "2025-257E", "EPOCH": "2025-12-08T13:06:53.895168", "MEAN_MOTION": 15.39626376, "ECCENTRICITY": 0.00024191, "INCLINATION": 53.16, "RA_OF_ASC_NODE": 284.306, "ARG_OF_PERICENTER": 81.3134, "MEAN_ANOMALY": 278.8144, "EPHEMERIS_TYPE": 0, "CLASSIFICATION_TYPE": "U", "NORAD_CAT_ID": 66384, "ELEMENT_SET_NO": 999, "REV_AT_EPOCH": 572, "BSTAR": 0.0016794119, "MEAN_MOTION_DOT": 0.00067388, "MEAN_MOTION_DDOT": 0}, "tle": {"line1": "1 66384U 25257E   25342.54645712  .00067388  00000+0  16794-2 0  9998", "line2": "2 66384  53.1600 284.3060 0002419  81.3134 278.8144 15.39626376  5729"}}, "geometry": {"type": "Point", "coordinates": [168.92722593016492, -50.77019268293008]}}, {"type": "Feature", "properties": {"norad_id": 66385, "name": "STARLINK-35659", "group": "last-30-days", "lat": -37.67241763264949, "lon": 137.68064764281684, "alt_km": 451.61832844093533, "timestamp": "2025-12-08T23:34:02.738001+00:00", "meta": {"OBJECT_NAME": "STARLINK-35659", "OBJECT_ID": "2025-257F", "EPOCH": "2025-12-08T13:13:35.609376", "MEAN_MOTION": 15.3966434, "ECCENTRICITY": 0.0001071, "INCLINATION": 53.1587, "RA_OF_ASC_NODE": 284.3387, "ARG_OF_PERICENTER": 103.1034, "MEAN_ANOMALY": 257.009, "EPHEMERIS_TYPE": 0, "CLASSIFICATION_TYPE": "U", "NORAD_CAT_ID": 66385, "ELEMENT_SET_NO": 999, "REV_AT_EPOCH": 572, "BSTAR": 0.0016812284, "MEAN_MOTION_DOT": 0.00067545, "MEAN_MOTION_DDOT": 0}, "tle": {"line1": "1 66385U 25257F   25342.55110659  .00067545  00000+0  16812-2 0  9993", "line2": "2 66385  53.1587 284.3387 0001071 103.1034 257.0090 15.39664340  5723"}}, "geometry": {"type": "Point", "coordinates": [137.68064764281684, -37.67241763264949]}}]}